CCSDS_OMM_VERS = 2.0
CREATION_DATE  = 
ORIGINATOR     = 

OBJECT_NAME    = SL-4 R/B
OBJECT_ID      = 2014-021B
CENTER_NAME    = EARTH
REF_FRAME      = TEME
TIME_SYSTEM    = UTC
MEAN_ELEMENT_THEORY = SGP/SGP4

EPOCH          = 2026-01-14T01:23:57.671232
MEAN_MOTION    = 15.37506630
ECCENTRICITY   = .00994031
INCLINATION    = 51.6066
RA_OF_ASC_NODE = 243.4353
ARG_OF_PERICENTER = 263.4676
MEAN_ANOMALY   = 95.4983

EPHEMERIS_TYPE = 0
CLASSIFICATION_TYPE = U
NORAD_CAT_ID   = 39679
ELEMENT_SET_NO = 999
REV_AT_EPOCH   = 64786
BSTAR          = .15099001E-3
MEAN_MOTION_DOT = .6219E-4
MEAN_MOTION_DDOT = 0

CCSDS_OMM_VERS = 2.0
CREATION_DATE  = 
ORIGINATOR     = 

OBJECT_NAME    = ALOS-2
OBJECT_ID      = 2014-029A
CENTER_NAME    = EARTH
REF_FRAME      = TEME
TIME_SYSTEM    = UTC
MEAN_ELEMENT_THEORY = SGP/SGP4

EPOCH          = 2026-01-13T22:28:14.659392
MEAN_MOTION    = 14.79478522
ECCENTRICITY   = .00014368
INCLINATION    = 97.9202
RA_OF_ASC_NODE = 113.3211
ARG_OF_PERICENTER = 96.5947
MEAN_ANOMALY   = 263.5428

EPHEMERIS_TYPE = 0
CLASSIFICATION_TYPE = U
NORAD_CAT_ID   = 39766
ELEMENT_SET_NO = 999
REV_AT_EPOCH   = 62877
BSTAR          = -.4890843E-5
MEAN_MOTION_DOT = -.88E-6
MEAN_MOTION_DDOT = 0

CCSDS_OMM_VERS = 2.0
CREATION_DATE  = 
ORIGINATOR     = 

OBJECT_NAME    = YAOGAN-29
OBJECT_ID      = 2015-069A
CENTER_NAME    = EARTH
REF_FRAME      = TEME
TIME_SYSTEM    = UTC
MEAN_ELEMENT_THEORY = SGP/SGP4

EPOCH          = 2026-01-14T08:14:14.277120
MEAN_MOTION    = 14.82922736
ECCENTRICITY   = .00022019
INCLINATION    = 98.0203
RA_OF_ASC_NODE = 42.6165
ARG_OF_PERICENTER = 127.1867
MEAN_ANOMALY   = 232.9547

EPHEMERIS_TYPE = 0
CLASSIFICATION_TYPE = U
NORAD_CAT_ID   = 41038
ELEMENT_SET_NO = 999
REV_AT_EPOCH   = 54782
BSTAR          = .17488296E-4
MEAN_MOTION_DOT = .88E-6
MEAN_MOTION_DDOT = 0

CCSDS_OMM_VERS = 2.0
CREATION_DATE  = 
ORIGINATOR     = 

OBJECT_NAME    = ASTRO-H (HITOMI)
OBJECT_ID      = 2016-012A
CENTER_NAME    = EARTH
REF_FRAME      = TEME
TIME_SYSTEM    = UTC
MEAN_ELEMENT_THEORY = SGP/SGP4

EPOCH          = 2026-01-14T03:47:35.757600
MEAN_MOTION    = 15.09590508
ECCENTRICITY   = .0009673
INCLINATION    = 31.0011
RA_OF_ASC_NODE = 348.3420
ARG_OF_PERICENTER = 146.0736
MEAN_ANOMALY   = 214.0522

EPHEMERIS_TYPE = 0
CLASSIFICATION_TYPE = U
NORAD_CAT_ID   = 41337
ELEMENT_SET_NO = 999
REV_AT_EPOCH   = 54398
BSTAR          = .11628706E-3
MEAN_MOTION_DOT = .201E-4
MEAN_MOTION_DDOT = 0

CCSDS_OMM_VERS = 2.0
CREATION_DATE  = 
ORIGINATOR     = 

OBJECT_NAME    = HXMT (HUIYAN)
OBJECT_ID      = 2017-034A
CENTER_NAME    = EARTH
REF_FRAME      = TEME
TIME_SYSTEM    = UTC
MEAN_ELEMENT_THEORY = SGP/SGP4

EPOCH          = 2026-01-14T06:18:35.665056
MEAN_MOTION    = 15.16701781
ECCENTRICITY   = .0033509
INCLINATION    = 43.0159
RA_OF_ASC_NODE = 319.0931
ARG_OF_PERICENTER = 251.2735
MEAN_ANOMALY   = 108.4475

EPHEMERIS_TYPE = 0
CLASSIFICATION_TYPE = U
NORAD_CAT_ID   = 42758
ELEMENT_SET_NO = 999
REV_AT_EPOCH   = 47427
BSTAR          = .20261143E-3
MEAN_MOTION_DOT = .3858E-4
MEAN_MOTION_DDOT = 0

CCSDS_OMM_VERS = 2.0
CREATION_DATE  = 
ORIGINATOR     = 

OBJECT_NAME    = CZ-2C R/B
OBJECT_ID      = 2018-054D
CENTER_NAME    = EARTH
REF_FRAME      = TEME
TIME_SYSTEM    = UTC
MEAN_ELEMENT_THEORY = SGP/SGP4

EPOCH          = 2026-01-14T04:29:16.445760
MEAN_MOTION    = 15.82947201
ECCENTRICITY   = .00103884
INCLINATION    = 35.1338
RA_OF_ASC_NODE = 319.5538
ARG_OF_PERICENTER = 124.7767
MEAN_ANOMALY   = 235.3948

EPHEMERIS_TYPE = 0
CLASSIFICATION_TYPE = U
NORAD_CAT_ID   = 43521
ELEMENT_SET_NO = 999
REV_AT_EPOCH   = 42018
BSTAR          = .63710596E-3
MEAN_MOTION_DOT = .144033E-2
MEAN_MOTION_DDOT = 0

CCSDS_OMM_VERS = 2.0
CREATION_DATE  = 
ORIGINATOR     = 

OBJECT_NAME    = SAOCOM 1A
OBJECT_ID      = 2018-076A
CENTER_NAME    = EARTH
REF_FRAME      = TEME
TIME_SYSTEM    = UTC
MEAN_ELEMENT_THEORY = SGP/SGP4

EPOCH          = 2026-01-14T06:42:27.527328
MEAN_MOTION    = 14.82147248
ECCENTRICITY   = .00014915
INCLINATION    = 97.8854
RA_OF_ASC_NODE = 203.2282
ARG_OF_PERICENTER = 86.6184
MEAN_ANOMALY   = 273.5199

EPHEMERIS_TYPE = 0
CLASSIFICATION_TYPE = U
NORAD_CAT_ID   = 43641
ELEMENT_SET_NO = 999
REV_AT_EPOCH   = 39330
BSTAR          = .11143632E-4
MEAN_MOTION_DOT = .37E-6
MEAN_MOTION_DDOT = 0

CCSDS_OMM_VERS = 2.0
CREATION_DATE  = 
ORIGINATOR     = 

OBJECT_NAME    = H-2A R/B
OBJECT_ID      = 2018-084L
CENTER_NAME    = EARTH
REF_FRAME      = TEME
TIME_SYSTEM    = UTC
MEAN_ELEMENT_THEORY = SGP/SGP4

EPOCH          = 2026-01-14T02:11:34.088064
MEAN_MOTION    = 15.38778771
ECCENTRICITY   = .00259357
INCLINATION    = 98.8768
RA_OF_ASC_NODE = 219.9134
ARG_OF_PERICENTER = 212.0518
MEAN_ANOMALY   = 147.9147

EPHEMERIS_TYPE = 0
CLASSIFICATION_TYPE = U
NORAD_CAT_ID   = 43682
ELEMENT_SET_NO = 999
REV_AT_EPOCH   = 39737
BSTAR          = .31726421E-3
MEAN_MOTION_DOT = .12197E-3
MEAN_MOTION_DDOT = 0

CCSDS_OMM_VERS = 2.0
CREATION_DATE  = 
ORIGINATOR     = 

OBJECT_NAME    = SAOCOM 1B
OBJECT_ID      = 2020-059A
CENTER_NAME    = EARTH
REF_FRAME      = TEME
TIME_SYSTEM    = UTC
MEAN_ELEMENT_THEORY = SGP/SGP4

EPOCH          = 2026-01-14T07:27:23.296320
MEAN_MOTION    = 14.82146992
ECCENTRICITY   = .00013435
INCLINATION    = 97.8851
RA_OF_ASC_NODE = 202.3583
ARG_OF_PERICENTER = 85.0990
MEAN_ANOMALY   = 275.0376

EPHEMERIS_TYPE = 0
CLASSIFICATION_TYPE = U
NORAD_CAT_ID   = 46265
ELEMENT_SET_NO = 999
REV_AT_EPOCH   = 29069
BSTAR          = -.26737616E-4
MEAN_MOTION_DOT = -.265E-5
MEAN_MOTION_DDOT = 0

CCSDS_OMM_VERS = 2.0
CREATION_DATE  = 
ORIGINATOR     = 

OBJECT_NAME    = CSS (TIANHE)
OBJECT_ID      = 2021-035A
CENTER_NAME    = EARTH
REF_FRAME      = TEME
TIME_SYSTEM    = UTC
MEAN_ELEMENT_THEORY = SGP/SGP4

EPOCH          = 2026-01-14T05:44:41.082432
MEAN_MOTION    = 15.60498345
ECCENTRICITY   = .00114434
INCLINATION    = 41.4651
RA_OF_ASC_NODE = 179.1985
ARG_OF_PERICENTER = 282.0781
MEAN_ANOMALY   = 77.8776

EPHEMERIS_TYPE = 0
CLASSIFICATION_TYPE = U
NORAD_CAT_ID   = 48274
ELEMENT_SET_NO = 999
REV_AT_EPOCH   = 26910
BSTAR          = .15508651E-3
MEAN_MOTION_DOT = .12865E-3
MEAN_MOTION_DDOT = 0

CCSDS_OMM_VERS = 2.0
CREATION_DATE  = 
ORIGINATOR     = 

OBJECT_NAME    = COSMOS 2550
OBJECT_ID      = 2021-056A
CENTER_NAME    = EARTH
REF_FRAME      = TEME
TIME_SYSTEM    = UTC
MEAN_ELEMENT_THEORY = SGP/SGP4

EPOCH          = 2026-01-14T06:21:04.345632
MEAN_MOTION    = 15.33822042
ECCENTRICITY   = .00083449
INCLINATION    = 67.1411
RA_OF_ASC_NODE = 205.5546
ARG_OF_PERICENTER = 269.0866
MEAN_ANOMALY   = 90.9332

EPHEMERIS_TYPE = 0
CLASSIFICATION_TYPE = U
NORAD_CAT_ID   = 48865
ELEMENT_SET_NO = 999
REV_AT_EPOCH   = 25511
BSTAR          = .500192E-6
MEAN_MOTION_DOT = -.175E-5
MEAN_MOTION_DDOT = 0

CCSDS_OMM_VERS = 2.0
CREATION_DATE  = 
ORIGINATOR     = 

OBJECT_NAME    = CZ-2C R/B
OBJECT_ID      = 2022-058K
CENTER_NAME    = EARTH
REF_FRAME      = TEME
TIME_SYSTEM    = UTC
MEAN_ELEMENT_THEORY = SGP/SGP4

EPOCH          = 2026-01-14T01:15:46.013760
MEAN_MOTION    = 15.50445328
ECCENTRICITY   = .00429823
INCLINATION    = 50.1889
RA_OF_ASC_NODE = 238.5282
ARG_OF_PERICENTER = 330.9001
MEAN_ANOMALY   = 28.9573

EPHEMERIS_TYPE = 0
CLASSIFICATION_TYPE = U
NORAD_CAT_ID   = 52794
ELEMENT_SET_NO = 999
REV_AT_EPOCH   = 20164
BSTAR          = .22565114E-3
MEAN_MOTION_DOT = .13141E-3
MEAN_MOTION_DDOT = 0

