SL-4 R/B                
1 39679U 14021B   26014.05830638  .00006219  00000+0  15099-3 0  9992
2 39679  51.6066 243.4353 0099403 263.4676  95.4983 15.37506630647868
ALOS-2                  
1 39766U 14029A   26013.93628078 -.00000088  00000+0 -48908-5 0  9993
2 39766  97.9202 113.3211 0001436  96.5947 263.5428 14.79478522628777
YAOGAN-29               
1 41038U 15069A   26014.34322080  .00000088  00000+0  17488-4 0  9999
2 41038  98.0203  42.6165 0002201 127.1867 232.9547 14.82922736547823
ASTRO-H (HITOMI)        
1 41337U 16012A   26014.15805275  .00002010  00000+0  11629-3 0  9998
2 41337  31.0011 348.3420 0009673 146.0736 214.0522 15.09590508543989
HXMT (HUIYAN)           
1 42758U 17034A   26014.26291279  .00003858  00000+0  20261-3 0  9999
2 42758  43.0159 319.0931 0033509 251.2735 108.4475 15.16701781474271
CZ-2C R/B               
1 43521U 18054D   26014.18699590  .00144033  00000+0  63711-3 0  9998
2 43521  35.1338 319.5538 0010388 124.7767 235.3948 15.82947201420186
SAOCOM 1A               
1 43641U 18076A   26014.27948527  .00000037  00000+0  11144-4 0  9991
2 43641  97.8854 203.2282 0001491  86.6184 273.5199 14.82147248393303
H-2A R/B                
1 43682U 18084L   26014.09136676  .00012197  00000+0  31726-3 0  9996
2 43682  98.8768 219.9134 0025935 212.0518 147.9147 15.38778771397379
SAOCOM 1B               
1 46265U 20059A   26014.31068630 -.00000265  00000+0 -26738-4 0  9993
2 46265  97.8851 202.3583 0001343  85.0990 275.0376 14.82146992290690
CSS (TIANHE)            
1 48274U 21035A   26014.23936438  .00012865  00000+0  15509-3 0  9991
2 48274  41.4651 179.1985 0011443 282.0781  77.8776 15.60498345269104
COSMOS 2550             
1 48865U 21056A   26014.26463363 -.00000175  00000+0  50019-6 0  9995
2 48865  67.1411 205.5546 0008344 269.0866  90.9332 15.33822042255116
CZ-2C R/B               
1 52794U 22058K   26014.05261590  .00013141  00000+0  22565-3 0  9997
2 52794  50.1889 238.5282 0042982 330.9001  28.9573 15.50445328201645
